HST                     
1 20580U 90037B   21167.20170705  .00000519  00000-0  20420-4 0  9990
2 20580  28.4704  73.3603 0002790  53.0882  79.5053 15.09659824510855
POLAR                   
1 23802U 96013A   21167.20554050  .00000230  00000-0  00000+0 0  9996
2 23802  78.7114 245.4534 6012276 271.2362  25.0210  1.29847034121113
SWAS                    
1 25560U 98071A   21167.75520581  .00000106  00000-0  18375-4 0  9998
2 25560  69.8973 186.9214 0007038 174.7668 185.3563 14.94082495223396
CXO                     
1 25867U 99040B   21170.75349962  .00000526  00000-0  00000-0 0  9999
2 25867  55.0267 255.1398 8328676 226.5315 359.8441  0.37813693 10445
XMM-NEWTON              
1 25989U 99066A   21170.52229103 -.00000136  00000-0  00000+0 0  9998
2 25989  70.8026 312.0485 6574240  90.4074   0.2889  0.50139307 28222
TERRA                   
1 25994U 99068A   21168.15879993  .00000067  00000-0  24830-4 0  9994
2 25994  98.1757 242.5879 0001393  90.5087 330.2155 14.57127417143422
CLUSTER II-FM7 (SAMBA)  
1 26410U 00041A   21169.73850109  .00000643  00000-0  00000+0 0  9992
2 26410 132.8233 344.5270 4913018 192.0234 359.7337  0.44210993 23968
CLUSTER II-FM6 (SALSA)  
1 26411U 00041B   21169.73397026  .00000737  00000-0  00000-0 0  9992
2 26411 133.6136 346.4200 6407581 196.8315 359.6309  0.44218944 12242
CLUSTER II-FM5 (RUMBA)  
1 26463U 00045A   21169.73620823  .00000778  00000-0  00000-0 0  9992
2 26463 137.2457 346.4240 5965026 197.1142 359.5440  0.44219120 12133
CLUSTER II-FM8 (TANGO)  
1 26464U 00045B   21167.47588824  .00000582  00000-0  00000-0 0  9999
2 26464 132.8189 344.4990 4908731 191.9861 359.6509  0.44219729 12217
ODIN                    
1 26702U 01007A   21168.27915200  .00000903  00000-0  61794-4 0  9992
2 26702  97.5363 184.8250 0012709  98.6407 261.6262 15.08505012111817
TIMED                   
1 26998U 01055B   21167.73808401  .00000143  00000-0  19465-4 0  9990
2 26998  74.0729 287.9484 0002189 274.2190  85.8740 14.88314014 58595
RHESSI                  
1 27370U 02004A   21168.17806432  .00003449  00000-0  10309-3 0  9990
2 27370  38.0325 101.3150 0009386  78.9906 281.1922 15.35053832 70364
INTEGRAL                
1 27540U 02048A   21167.94377376  .00000652  00000-0  00000+0 0  9997
2 27540  64.2232  84.6448 8990414 299.3001   1.8961  0.37576698 19761
CORIOLIS                
1 27640U 03001A   21168.46202087  .00000004  00000-0  22810-4 0  9991
2 27640  98.7208 178.2500 0015329  69.2109 101.9809 14.19073213955182
SORCE                   
1 27651U 03004A   21167.51983404  .00000133  00000-0  27957-4 0  9990
2 27651  39.9955  99.4694 0021423  59.5576 300.7327 14.89313918998514
MOST                    
1 27843U 03031D   21168.24655737 -.00000005  00000-0  17731-4 0  9997
2 27843  98.7077 176.2132 0011044 118.5904 241.6385 14.20638249931397
SCISAT 1                
1 27858U 03036A   21167.79012208  .00000035  00000-0  99393-5 0  9994
2 27858  73.9315 185.8980 0009166 303.3144  56.7152 14.77353619961423
SWIFT                   
1 28485U 04047A   21167.82361984  .00000975  00000-0  35743-4 0  9997
2 28485  20.5578 353.4135 0011048 348.0873  11.9299 15.05015874908382
FORMOSAT-3 FM6          
1 29047U 06011A   21168.24716266  .00000150  00000-0  74719-4 0  9990
2 29047  71.9790  85.3813 0049781 154.3509 206.0113 14.28818466793438
FORMOSAT-3 FM1          
1 29048U 06011B   21167.92458984  .00000066  00000-0  41994-4 0  9990
2 29048  71.9667 356.5229 0042498 112.7426 247.8210 14.28781055795841
FORMOSAT-3 FM5          
1 29049U 06011C   21168.18590391  .00000051  00000-0  36121-4 0  9999
2 29049  72.0186 169.7141 0033685 137.3141 223.0622 14.28862709791689
FORMOSAT-3 FM3          
1 29050U 06011D   21167.76634439  .00000128  00000-0  37034-4 0  9995
2 29050  72.0163 279.3854 0049296  20.7147 339.5988 14.59075283809440
FORMOSAT-3 FM4          
1 29051U 06011E   21167.89710307  .00000069  00000-0  42629-4 0  9999
2 29051  72.0060  71.6537 0067857  13.3605 346.9307 14.28894436794207
FORMOSAT-3 FM2          
1 29052U 06011F   21168.43009754  .00000099  00000-0  54625-4 0  9990
2 29052  72.0329 145.8603 0038350  93.1268 267.4258 14.29004892792650
CLOUDSAT                
1 29107U 06016A   21167.93098342  .00000115  00000-0  32250-4 0  9990
2 29107  98.2786 120.9206 0001241  61.4527 298.6799 14.62375254805590
CALIPSO                 
1 29108U 06016B   21167.96672750  .00000168  00000-0  42580-4 0  9990
2 29108  98.2761 120.7285 0001521  84.1243 276.0132 14.62555989805593
HINODE (SOLAR-B)        
1 29479U 06041A   21168.08651743  .00000082  00000-0  24580-4 0  9997
2 29479  98.1348 182.6423 0017863 297.7876  62.1515 14.64563800787282
SJ-6C                   
1 29505U 06046A   21168.56694964  .00000169  00000-0  20674-4 0  9993
2 29505  97.7994 186.7542 0002952 257.1940 102.8932 14.95164672798168
SJ-6D                   
1 29506U 06046B   21168.53027243  .00000223  00000-0  26531-4 0  9990
2 29506  97.8184 186.9364 0002273  32.5129 327.6238 14.93610749797664
AGILE                   
1 31135U 07013A   21167.60886183  .00002755  00000-0  47345-4 0  9997
2 31135   2.4666 224.3707 0011163 112.4142 247.7095 15.33607905788029
AIM                     
1 31304U 07015A   21167.67672863  .00001154  00000-0  66648-4 0  9991
2 31304  97.8691  69.3288 0004861 174.0265 186.1024 15.14447166775799
FGRST (GLAST)           
1 33053U 08029A   21168.14785090  .00000497  00000-0  11517-4 0  9994
2 33053  25.5815 136.4864 0011916 269.1893  90.7277 15.11534529718576
WISE                    
1 36119U 09071A   21168.10530233  .00001324  00000-0  46802-4 0  9996
2 36119  97.2834 204.6604 0003452 136.0608 224.0908 15.30927768639590
SDO                     
1 36395U 10005A   21168.40138509 -.00000052  00000-0  00000+0 0  9997
2 36395  30.9672 115.2058 0001422 318.7931 234.5721  1.00270970 41722
CRYOSAT 2               
1 36508U 10013A   21167.84101386  .00000003  00000-0  65868-7 0  9998
2 36508  92.0111 195.7240 0007975  63.1255 297.0766 14.51910248593083
X-SAT                   
1 37389U 11015C   21168.51453898 -.00000018  00000-0  10209-4 0  9995
2 37389  98.3821 214.3354 0013039 304.9311  55.0646 14.24389978528255
GCOM-W1 (SHIZUKU)       
1 38337U 12025A   21167.83394753  .00000060  00000-0  23431-4 0  9996
2 38337  98.2091 108.5307 0000471  70.2182 347.3447 14.57100201483076
NUSTAR                  
1 38358U 12031A   21167.49761268  .00000971  00000-0  27502-4 0  9991
2 38358   6.0255 144.1555 0011195  99.4767 260.6627 14.88542278490327
NEOSSAT                 
1 39089U 13009D   21168.47958350  .00000029  00000-0  25609-4 0  9998
2 39089  98.4426   8.5164 0010149 285.0899  74.9163 14.34567714434894
IRIS                    
1 39197U 13033A   21168.11349644  .00000142  00000-0  26369-4 0  9996
2 39197  97.9658 352.3978 0028744 128.8868 231.4914 14.78863218429993
HISAKI (SPRINT-A)       
1 39253U 13049A   21167.63661961  .00000054  00000-0 -13829-4 0  9991
2 39253  29.7185 143.6861 0136921 332.8366  26.5096 13.55249096383442
CASSIOPE                
1 39265U 13055A   21167.80709979  .00001899  00000-0  52854-4 0  9990
2 39265  80.9673 292.7549 0648169 315.7903  39.3175 14.32270001399908
STSAT-3                 
1 39422U 13066G   21167.78884969 -.00000259  00000-0 -21359-4 0  9994
2 39422  97.4783 187.6840 0024465  62.2499 298.1193 14.89966764411387
SWARM B                 
1 39451U 13067A   21168.07041787  .00000407  00000-0  16275-4 0  9997
2 39451  87.7550 170.7757 0001615  93.4437 266.6993 15.22036972419982
SWARM A                 
1 39452U 13067B   21167.77840851  .00001599  00000-0  32203-4 0  9995
2 39452  87.3602 358.0130 0003408  80.6323 279.5320 15.45665704425437
SWARM C                 
1 39453U 13067C   21167.77833775  .00001590  00000-0  32025-4 0  9996
2 39453  87.3455 358.2289 0003406  80.5820 279.5823 15.45664049425394
BRITE-CA1 (TORONTO)     
1 40020U 14033L   21168.46818653  .00000064  00000-0  19304-4 0  9997
2 40020  97.7428 341.9717 0086953 348.7992  11.1276 14.66742450374269
OCO 2                   
1 40059U 14035A   21167.88854078  .00000061  00000-0  23628-4 0  9998
2 40059  98.2094 109.3247 0001329  93.4557 266.6793 14.57103710370093
BRITE-PL2 (HEWELIUSZ)   
1 40119U 14049B   21167.82191051  .00000156  00000-0  24810-4 0  9998
2 40119  97.8879 262.3120 0017327   3.1843 356.9478 14.84659832369752
RESURS P2               
1 40360U 14087A   21168.45410424  .00000963  00000-0  31306-4 0  9990
2 40360  97.2284 255.9425 0008530 329.3332 161.3840 15.34278637362268
MMS 1                   
1 40482U 15011A   21167.55869285 -.00000472  00000-0  00000-0 0  9995
2 40482  33.4708 116.8246 8438803  33.2255  77.3382  0.28561232 12267
MMS 2                   
1 40483U 15011B   21167.55867706 -.00000472  00000-0  00000-0 0  9992
2 40483  33.4738 116.8165 8437109  33.2291  77.3415  0.28565384 12325
MMS 3                   
1 40484U 15011C   21168.46557962 -.00000428  00000-0  00000+0 0  9994
2 40484  33.4755 116.7951 8440556  33.2846 170.3468  0.28545309 12230
MMS 4                   
1 40485U 15011D   21150.80548125 -.00000488  00000-0  00000+0 0  9991
2 40485  33.4521 117.0984 8440820  32.5680 156.1830  0.28465260 12180
ASTROSAT                
1 40930U 15052A   21167.48742519  .00000747  00000-0  15735-4 0  9999
2 40930   5.9963 267.4203 0008495  14.1652 345.8713 14.76374130309031
DAMPE                   
1 41173U 15078A   21168.45864500  .00000105  00000-0  72388-5 0  9996
2 41173  97.3486 160.6408 0015165  49.6976 101.3299 15.24013722305986
PISAT                   
1 41784U 16059B   21167.68946688  .00000112  00000-0  30450-4 0  9997
2 41784  97.9666 219.2246 0030641 243.6167 116.1889 14.63629929252181
HXMT (HUIYAN)           
1 42758U 17034A   21168.52654421  .00000234  00000-0  28019-4 0  9991
2 42758  43.0164 192.7235 0007972 166.9334 354.2728 15.09204330221027
FLYING LAPTOP           
1 42831U 17042G   21168.02499433 -.00000277  00000-0 -22555-4 0  9995
2 42831  97.4706  37.8088 0014772 143.5844 216.6390 14.91302670213621
PICSAT                  
1 43132U 18004X   21168.18952162  .00002290  00000-0  92208-4 0  9996
2 43132  97.4084 242.7341 0008467 198.8053 161.2873 15.25873816190643
ZHANGZHENG-1 (CSES)     
1 43194U 18015C   21168.58059407  .00001385  00000-0  65486-4 0  9992
2 43194  97.4794 295.9464 0012013 270.5739 145.5326 15.21034574187163
ICON                    
1 44628U 19068A   21168.14844390  .00000529  00000-0  31340-4 0  9990
2 44628  26.9881 173.8795 0018704 334.5733  25.3903 14.91953405 91933
SALSAT                  
1 46495U 20068K   21167.92859462 -.00000329  00000-0 -19559-4 0  9995
2 46495  97.6950 105.4276 0018848  73.8765 286.4529 15.03455700 39251
